start=new Date('2022-01-24T00:00:00.000Z').valueOf();
sats=[{"MEAN_MOTION":"15.06403523","COUNTRY_CODE":"US","NORAD_CAT_ID":"48589","CENTER_NAME":"EARTH","CLASSIFICATION_TYPE":"U","SITE":"AFETR","OBJECT_NAME":"STARLINK-2245","TLE_LINE2":"2 48589  53.0554  53.1164 0001320  90.1914 269.9226 15.06403523 38183","MEAN_ANOMALY":"269.9226","APOAPSIS":"548.117","RCS_SIZE":"LARGE","ELEMENT_SET_NO":"999","EPOCH":"2022-01-23T12:16:54.447456","MEAN_ELEMENT_THEORY":"SGP4","OBJECT_ID":"2021-041AN","FILE":"3280923","MEAN_MOTION_DDOT":"0.0000000000000","REV_AT_EPOCH":"3818","OBJECT_TYPE":"PAYLOAD","RA_OF_ASC_NODE":"53.1164","DECAY_DATE":null,"GP_ID":"194465991","PERIAPSIS":"546.289","PERIOD":"95.592","BSTAR":"0.00024666000000","TIME_SYSTEM":"UTC","REF_FRAME":"TEME","ECCENTRICITY":"0.00013200","INCLINATION":"53.0554","MEAN_MOTION_DOT":"0.00003395","TLE_LINE1":"1 48589U 21041AN  22023.51174129  .00003395  00000-0  24666-3 0  9998","ARG_OF_PERICENTER":"90.1914","EPHEMERIS_TYPE":"0","SEMIMAJOR_AXIS":"6925.338","LAUNCH_DATE":"2021-05-15"},{"OBJECT_NAME":"STARLINK-2246","SITE":"AFETR","TLE_LINE2":"2 48590  53.0551  63.0041 0001477  76.2016 283.9137 15.06397036 38040","NORAD_CAT_ID":"48590","MEAN_MOTION":"15.06397036","COUNTRY_CODE":"US","CENTER_NAME":"EARTH","CLASSIFICATION_TYPE":"U","REV_AT_EPOCH":"3804","MEAN_MOTION_DDOT":"0.0000000000000","GP_ID":"194466234","DECAY_DATE":null,"RA_OF_ASC_NODE":"63.0041","OBJECT_TYPE":"PAYLOAD","MEAN_ANOMALY":"283.9137","FILE":"3280923","OBJECT_ID":"2021-041AP","MEAN_ELEMENT_THEORY":"SGP4","RCS_SIZE":"LARGE","ELEMENT_SET_NO":"999","APOAPSIS":"548.246","EPOCH":"2022-01-23T12:52:45.492960","TIME_SYSTEM":"UTC","ECCENTRICITY":"0.00014770","REF_FRAME":"TEME","PERIAPSIS":"546.200","BSTAR":"0.00036600000000","PERIOD":"95.592","EPHEMERIS_TYPE":"0","ARG_OF_PERICENTER":"76.2016","TLE_LINE1":"1 48590U 21041AP  22023.53663765  .00005174  00000-0  36600-3 0  9999","LAUNCH_DATE":"2021-05-15","SEMIMAJOR_AXIS":"6925.358","INCLINATION":"53.0551","MEAN_MOTION_DOT":"0.00005174"},{"TLE_LINE2":"2 48591  53.0605  51.9338 0001269  74.5080 285.6049 15.06396575 38629","SITE":"AFETR","OBJECT_NAME":"STARLINK-2248","CLASSIFICATION_TYPE":"U","CENTER_NAME":"EARTH","MEAN_MOTION":"15.06396575","COUNTRY_CODE":"US","NORAD_CAT_ID":"48591","OBJECT_TYPE":"PAYLOAD","RA_OF_ASC_NODE":"51.9338","DECAY_DATE":null,"GP_ID":"194470820","MEAN_MOTION_DDOT":"0.0000000000000","REV_AT_EPOCH":"3862","EPOCH":"2022-01-23T18:16:28.384896","RCS_SIZE":"LARGE","APOAPSIS":"548.103","ELEMENT_SET_NO":"999","MEAN_ELEMENT_THEORY":"SGP4","OBJECT_ID":"2021-041AQ","FILE":"3281101","MEAN_ANOMALY":"285.6049","REF_FRAME":"TEME","ECCENTRICITY":"0.00012690","TIME_SYSTEM":"UTC","PERIOD":"95.592","BSTAR":"0.00006781800000","PERIAPSIS":"546.345","SEMIMAJOR_AXIS":"6925.359","LAUNCH_DATE":"2021-05-15","TLE_LINE1":"1 48591U 21041AQ  22023.76143964  .00000729  00000-0  67818-4 0  9996","ARG_OF_PERICENTER":"74.5080","EPHEMERIS_TYPE":"0","MEAN_MOTION_DOT":"0.00000729","INCLINATION":"53.0605"},{"SITE":"AFETR","OBJECT_NAME":"STARLINK-2249","TLE_LINE2":"2 48592  53.0544  63.1644 0001256  83.7143 276.3989 15.06393449 38048","NORAD_CAT_ID":"48592","MEAN_MOTION":"15.06393449","COUNTRY_CODE":"US","CENTER_NAME":"EARTH","CLASSIFICATION_TYPE":"U","REV_AT_EPOCH":"3804","MEAN_MOTION_DDOT":"0.0000000000000","RA_OF_ASC_NODE":"63.1644","OBJECT_TYPE":"PAYLOAD","GP_ID":"194465240","DECAY_DATE":null,"MEAN_ANOMALY":"276.3989","MEAN_ELEMENT_THEORY":"SGP4","RCS_SIZE":"LARGE","APOAPSIS":"548.103","ELEMENT_SET_NO":"999","EPOCH":"2022-01-23T12:04:58.748736","FILE":"3280923","OBJECT_ID":"2021-041AR","TIME_SYSTEM":"UTC","ECCENTRICITY":"0.00012560","REF_FRAME":"TEME","PERIAPSIS":"546.364","BSTAR":"0.00020645000000","PERIOD":"95.593","ARG_OF_PERICENTER":"83.7143","TLE_LINE1":"1 48592U 21041AR  22023.50345774  .00002794  00000-0  20645-3 0  9992","EPHEMERIS_TYPE":"0","SEMIMAJOR_AXIS":"6925.369","LAUNCH_DATE":"2021-05-15","INCLINATION":"53.0544","MEAN_MOTION_DOT":"0.00002794"},{"TIME_SYSTEM":"UTC","ECCENTRICITY":"0.00013810","REF_FRAME":"TEME","PERIAPSIS":"546.265","BSTAR":"0.00056451000000","PERIOD":"95.592","ARG_OF_PERICENTER":"76.5075","TLE_LINE1":"1 48593U 21041AS  22023.51083741  .00008136  00000-0  56451-3 0  9997","EPHEMERIS_TYPE":"0","SEMIMAJOR_AXIS":"6925.357","LAUNCH_DATE":"2021-05-15","INCLINATION":"53.0549","MEAN_MOTION_DOT":"0.00008136","SITE":"AFETR","OBJECT_NAME":"STARLINK-2250","TLE_LINE2":"2 48593  53.0549  63.1208 0001381  76.5075 283.6068 15.06397396 38047","NORAD_CAT_ID":"48593","COUNTRY_CODE":"US","MEAN_MOTION":"15.06397396","CENTER_NAME":"EARTH","CLASSIFICATION_TYPE":"U","REV_AT_EPOCH":"3804","MEAN_MOTION_DDOT":"0.0000000000000","RA_OF_ASC_NODE":"63.1208","OBJECT_TYPE":"PAYLOAD","GP_ID":"194466491","DECAY_DATE":null,"MEAN_ANOMALY":"283.6068","MEAN_ELEMENT_THEORY":"SGP4","APOAPSIS":"548.178","RCS_SIZE":"LARGE","EPOCH":"2022-01-23T12:15:36.352224","ELEMENT_SET_NO":"999","FILE":"3280923","OBJECT_ID":"2021-041AS"},{"SEMIMAJOR_AXIS":"6927.788","LAUNCH_DATE":"2021-05-15","TLE_LINE1":"1 48594U 21041AT  22023.58334491 -.00023214  00000-0 -15783-2 0  9994","ARG_OF_PERICENTER":"79.5879","EPHEMERIS_TYPE":"0","MEAN_MOTION_DOT":"-0.00023214","INCLINATION":"53.0551","REF_FRAME":"TEME","ECCENTRICITY":"0.00013910","TIME_SYSTEM":"UTC","PERIOD":"95.643","BSTAR":"-0.00157830000000","PERIAPSIS":"548.690","OBJECT_TYPE":"PAYLOAD","RA_OF_ASC_NODE":"32.4661","DECAY_DATE":null,"GP_ID":"194466734","MEAN_MOTION_DDOT":"0.0000000000000","REV_AT_EPOCH":"359","RCS_SIZE":"LARGE","EPOCH":"2022-01-23T14:00:01.000224","APOAPSIS":"550.617","ELEMENT_SET_NO":"999","MEAN_ELEMENT_THEORY":"SGP4","OBJECT_ID":"2021-041AT","FILE":"3280923","MEAN_ANOMALY":"7.8451","TLE_LINE2":"2 48594  53.0551  32.4661 0001391  79.5879   7.8451 15.05604295  3591","SITE":"AFETR","OBJECT_NAME":"STARLINK-2251","CLASSIFICATION_TYPE":"U","CENTER_NAME":"EARTH","COUNTRY_CODE":"US","MEAN_MOTION":"15.05604295","NORAD_CAT_ID":"48594"},{"TIME_SYSTEM":"UTC","REF_FRAME":"TEME","ECCENTRICITY":"0.00012690","PERIAPSIS":"546.358","PERIOD":"95.593","BSTAR":"0.00005225800000","EPHEMERIS_TYPE":"0","TLE_LINE1":"1 48595U 21041AU  22023.49239004  .00000497  00000-0  52258-4 0  9995","ARG_OF_PERICENTER":"79.6219","LAUNCH_DATE":"2021-05-15","SEMIMAJOR_AXIS":"6925.372","INCLINATION":"53.0562","MEAN_MOTION_DOT":"0.00000497","OBJECT_NAME":"STARLINK-2252","SITE":"AFETR","TLE_LINE2":"2 48595  53.0562  63.2072 0001269  79.6219 280.4913 15.06392455 39319","COUNTRY_CODE":"US","MEAN_MOTION":"15.06392455","NORAD_CAT_ID":"48595","CLASSIFICATION_TYPE":"U","CENTER_NAME":"EARTH","MEAN_MOTION_DDOT":"0.0000000000000","REV_AT_EPOCH":"3931","DECAY_DATE":null,"GP_ID":"194464991","OBJECT_TYPE":"PAYLOAD","RA_OF_ASC_NODE":"63.2072","MEAN_ANOMALY":"280.4913","OBJECT_ID":"2021-041AU","FILE":"3280923","RCS_SIZE":"LARGE","EPOCH":"2022-01-23T11:49:02.499456","APOAPSIS":"548.116","ELEMENT_SET_NO":"999","MEAN_ELEMENT_THEORY":"SGP4"},{"TIME_SYSTEM":"UTC","ECCENTRICITY":"0.00013750","REF_FRAME":"TEME","PERIAPSIS":"546.257","BSTAR":"0.00007758600000","PERIOD":"95.592","ARG_OF_PERICENTER":"74.0613","TLE_LINE1":"1 48596U 21041AV  22023.51450152  .00000874  00000-0  77586-4 0  9998","EPHEMERIS_TYPE":"0","SEMIMAJOR_AXIS":"6925.344","LAUNCH_DATE":"2021-05-15","INCLINATION":"53.0562","MEAN_MOTION_DOT":"0.00000874","SITE":"AFETR","OBJECT_NAME":"STARLINK-2253","TLE_LINE2":"2 48596  53.0562  63.1048 0001375  74.0613 286.0527 15.06401465 38502","NORAD_CAT_ID":"48596","MEAN_MOTION":"15.06401465","COUNTRY_CODE":"US","CENTER_NAME":"EARTH","CLASSIFICATION_TYPE":"U","REV_AT_EPOCH":"3850","MEAN_MOTION_DDOT":"0.0000000000000","RA_OF_ASC_NODE":"63.1048","OBJECT_TYPE":"PAYLOAD","GP_ID":"194465740","DECAY_DATE":null,"MEAN_ANOMALY":"286.0527","MEAN_ELEMENT_THEORY":"SGP4","RCS_SIZE":"LARGE","EPOCH":"2022-01-23T12:20:52.931328","APOAPSIS":"548.161","ELEMENT_SET_NO":"999","FILE":"3280923","OBJECT_ID":"2021-041AV"},{"SEMIMAJOR_AXIS":"6925.365","LAUNCH_DATE":"2021-05-15","TLE_LINE1":"1 48597U 21041AW  22023.45554049  .00003052  00000-0  22374-3 0  9997","ARG_OF_PERICENTER":"82.1853","EPHEMERIS_TYPE":"0","MEAN_MOTION_DOT":"0.00003052","INCLINATION":"53.0552","REF_FRAME":"TEME","ECCENTRICITY":"0.00013250","TIME_SYSTEM":"UTC","PERIOD":"95.592","BSTAR":"0.00022374000000","PERIAPSIS":"546.312","OBJECT_TYPE":"PAYLOAD","RA_OF_ASC_NODE":"63.3794","DECAY_DATE":null,"GP_ID":"194465992","MEAN_MOTION_DDOT":"0.0000000000000","REV_AT_EPOCH":"3930","APOAPSIS":"548.148","RCS_SIZE":"LARGE","EPOCH":"2022-01-23T10:55:58.698336","ELEMENT_SET_NO":"999","MEAN_ELEMENT_THEORY":"SGP4","OBJECT_ID":"2021-041AW","FILE":"3280923","MEAN_ANOMALY":"277.9286","TLE_LINE2":"2 48597  53.0552  63.3794 0001325  82.1853 277.9286 15.06394630 39308","SITE":"AFETR","OBJECT_NAME":"STARLINK-2255","CLASSIFICATION_TYPE":"U","CENTER_NAME":"EARTH","COUNTRY_CODE":"US","MEAN_MOTION":"15.06394630","NORAD_CAT_ID":"48597"},{"ECCENTRICITY":"0.00012200","REF_FRAME":"TEME","TIME_SYSTEM":"UTC","BSTAR":"0.00008150100000","PERIOD":"95.592","PERIAPSIS":"546.355","SEMIMAJOR_AXIS":"6925.335","LAUNCH_DATE":"2021-05-15","ARG_OF_PERICENTER":"70.3768","TLE_LINE1":"1 48598U 21041AX  22023.52555587  .00000933  00000-0  81501-4 0  9997","EPHEMERIS_TYPE":"0","MEAN_MOTION_DOT":"0.00000933","INCLINATION":"53.0546","TLE_LINE2":"2 48598  53.0546  63.0530 0001220  70.3768 289.7353 15.06404347 38509","SITE":"AFETR","OBJECT_NAME":"STARLINK-2256","CENTER_NAME":"EARTH","CLASSIFICATION_TYPE":"U","NORAD_CAT_ID":"48598","COUNTRY_CODE":"US","MEAN_MOTION":"15.06404347","RA_OF_ASC_NODE":"63.0530","OBJECT_TYPE":"PAYLOAD","GP_ID":"194466235","DECAY_DATE":null,"REV_AT_EPOCH":"3850","MEAN_MOTION_DDOT":"0.0000000000000","MEAN_ELEMENT_THEORY":"SGP4","APOAPSIS":"548.045","RCS_SIZE":"LARGE","EPOCH":"2022-01-23T12:36:48.027168","ELEMENT_SET_NO":"999","FILE":"3280923","OBJECT_ID":"2021-041AX","MEAN_ANOMALY":"289.7353"}];
